LEMUR-2-ALISIA          
1 62706U 25009DB  26157.48144058  .00010769  00000+0  81239-3 0  9990
2 62706  97.6967 239.7242 0000731 190.8641 169.2568 15.02615589 98552
LEMUR-2-ROUNDTRIPPER    
1 62711U 25009DG  26157.51325065  .00012328  00000+0  90490-3 0  9991
2 62711  97.7231 240.2091 0004297 165.8436 194.2910 15.03609690 76021
LEMUR-2-MYNAMEISJEFF    
1 62712U 25009DH  26157.51174448  .00011973  00000+0  87872-3 0  9994
2 62712  97.7283 240.5819 0002564 196.4260 163.6882 15.03625946 76020
LEMUR-2-LEIA-PHILIP     
1 63246U 25052AN  26157.57766285  .00002270  00000+0  20079-3 0  9993
2 63246  97.6844  49.7064 0002100 258.6996 101.3990 14.97284785 67088
LEMUR-2-LIA-MARTIN      
1 63248U 25052AQ  26157.45234085  .00007083  00000+0  60898-3 0  9990
2 63248  97.6902  50.0420 0002174 178.8869 181.2358 14.97710585 67075
LEMUR-2-DELOITTE-1      
1 63259U 25052BB  26157.62775330  .00004444  00000+0  38591-3 0  9997
2 63259  97.6917  50.5442 0002274 117.2997 242.8457 14.97523139 67118
LEMUR-2-EMERSONROSE     
1 63261U 25052BD  26157.61335824  .00004209  00000+0  35210-3 0  9993
2 63261  97.6906  51.0686 0002617  76.2779 283.8735 14.99010332 67154
LEMUR-2-MARACHE-FRAN    
1 63262U 25052BE  26157.59575464  .00007983  00000+0  64633-3 0  9990
2 63262  97.6942  51.3443 0006308  56.6630 303.5197 14.99988403 67175
LEMUR-2-THEFALCONER     
1 63264U 25052BG  26157.58585564  .00005572  00000+0  48510-3 0  9991
2 63264  97.6873  50.1338 0003596  63.7178 296.4413 14.97317137 67104
LEMUR-2-UNTITLED-SC     
1 63351U 25061A   26157.64228325  .00004050  00000+0  22983-3 0  9990
2 63351  97.5632 133.0820 0017189 304.8172  55.1441 15.13399649 65999
LEMUR-2-ESPERANZA       
1 63352U 25061B   26157.75229941  .00004699  00000+0  26543-3 0  9993
2 63352  97.5640 133.2822 0016865 303.7820  56.1804 15.13493751 66018
LEMUR-2-KREMPEL-BRO2    
1 63353U 25061C   26157.65008209  .00004411  00000+0  24634-3 0  9996
2 63353  97.5689 133.7004 0017571 295.8751  64.0669 15.13927449 66011
LEMUR-2-THERMORAPTOR    
1 63354U 25061D   26157.17005339  .00004837  00000+0  26919-3 0  9995
2 63354  97.5693 133.2970 0017353 296.5843  63.3609 15.14001058 65949
LEMUR-2-NEUROSPICY      
1 63355U 25061E   26157.73734432  .00005157  00000+0  28602-3 0  9998
2 63355  97.5621 133.4953 0015215 298.8360  61.1344 15.14121013 66035
LEMUR-2-TILLINFINITY    
1 63356U 25061F   26157.64452032  .00004372  00000+0  23900-3 0  9996
2 63356  97.5606 133.6862 0016254 285.7482  74.1957 15.14706331 66041
LEMUR-2-KREMPEL-BRO1    
1 63357U 25061G   26157.68270911  .00005151  00000+0  28240-3 0  9993
2 63357  97.5607 133.6432 0016970 286.8150  73.1220 15.14511994 66046
LEMUR-2-LANGER2SPACE    
1 63358U 25061H   26157.70711617  .00004154  00000+0  23059-3 0  9995
2 63358  97.5612 133.4855 0015026 297.0668  62.9030 15.14208858 66035
LEMUR-2-BALTO           
1 63395U 25052BH  26157.44688842  .00007281  00000+0  59017-3 0  9997
2 63395  97.6877  51.1835 0006507  84.6270 275.5696 14.99969570 67158
LEMUR-2-KRISH           
1 64561U 25135AK  26157.57428907  .00006201  00000+0  55630-3 0  9991
2 64561  97.7727 272.5262 0001128 103.2930 256.8417 14.96106318 52334
LEMUR-2-HUBBLE-4        
1 64565U 25135AP  26157.61542323  .00001767  00000+0  17466-3 0  9996
2 64565  97.7688 271.6508 0001770   3.7631 356.3601 14.93168483 52296
LEMUR-2-SEJONG-2        
1 64586U 25135BL  26157.74154116  .00006467  00000+0  57232-3 0  9999
2 64586  97.7683 272.8355 0004674  24.3108 335.8333 14.96617170 52380
LEMUR-2-HUBBLE-5        
1 64840U 25135BT  26157.57612330  .00001638  00000+0  15856-3 0  9991
2 64840  97.7708 272.2283 0005969  28.3926 331.7618 14.94102503 52327
LEMUR-2-KARENDARRELL    
1 64841U 25135BU  26157.57852494  .00010168  00000+0  82207-3 0  9991
2 64841  97.7674 273.8067 0009021 243.4518 116.5781 14.99957693 52421
LEMUR-2-LUCILLE-ROSE    
1 65403U 25135BV  26156.88555324  .00009851  00000+0  79533-3 0  9996
2 65403  97.7773 273.1201 0010649 327.0038  33.0519 15.00006001 46946
LEMUR-2-AFFIE-WAUWIE    
1 66295U 25248C   26156.34516480  .00012446  00000+0  47373-3 0  9993
2 66295  45.3864 179.1302 0009103   8.2322 351.8715 15.26809642 32786
LEMUR-2-DEANANDMAEVE    
1 66678U 25276N   26157.45011831  .00008600  00000+0  40674-3 0  9996
2 66678  97.4208 231.1049 0006706  49.1401 311.0414 15.19599967 28783
LEMUR-2-STAS-GORBUK     
1 66686U 25276W   26157.46220239  .00007399  00000+0  35383-3 0  9995
2 66686  97.4244 231.1727 0006181  49.2263 310.9508 15.19266623 28781
LEMUR-2-TEODOR          
1 66768U 25276DG  26157.45772546  .00007220  00000+0  32923-3 0  9998
2 66768  97.4146 231.3909 0001836 124.4913 235.6496 15.20933331 28819
LEMUR-2-LAILA           
1 66776U 25276DQ  26157.43319580  .00008014  00000+0  36279-3 0  9990
2 66776  97.4170 231.4809 0001472 147.8107 212.3219 15.21152512 28815
LEMUR-2-CELIJO-SB-PK    
1 66781U 25276DW  26157.42929830  .00009014  00000+0  73136-3 0  9994
2 66781  97.5276 228.5585 0008831 158.5528 201.6068 14.99845445 21015
